[{"OBJECT_NAME":"STARLINK-31464","OBJECT_ID":"2024-056Y","EPOCH":"2026-03-07T18:36:53.135136","MEAN_MOTION":15.27583803,"ECCENTRICITY":0.00014224,"INCLINATION":42.9986,"RA_OF_ASC_NODE":241.3384,"ARG_OF_PERICENTER":289.0593,"MEAN_ANOMALY":71.0104,"EPHEMERIS_TYPE":0,"CLASSIFICATION_TYPE":"U","NORAD_CAT_ID":59318,"ELEMENT_SET_NO":999,"REV_AT_EPOCH":11086,"BSTAR":6.3376538e-5,"MEAN_MOTION_DOT":1.482e-5,"MEAN_MOTION_DDOT":0},{"OBJECT_NAME":"H-2A R\/B","OBJECT_ID":"2006-002B","EPOCH":"2026-03-09T22:32:18.942432","MEAN_MOTION":15.16426804,"ECCENTRICITY":0.00518947,"INCLINATION":98.2413,"RA_OF_ASC_NODE":215.9838,"ARG_OF_PERICENTER":240.1322,"MEAN_ANOMALY":119.4746,"EPHEMERIS_TYPE":0,"CLASSIFICATION_TYPE":"U","NORAD_CAT_ID":28932,"ELEMENT_SET_NO":999,"REV_AT_EPOCH":9447,"BSTAR":0.00057792596,"MEAN_MOTION_DOT":0.00011556,"MEAN_MOTION_DDOT":0}]
